{"type": "FeatureCollection", "features": [ {"type": "Feature", "properties": {"norad_id": 37427, "name": "FENGYUN 1C DEB", "group": "fengyun-1c-debris", "lat": 73.22427970759479, "lon": -4.423905854006305, "alt_km": 668.6084317574414, "timestamp": "2025-12-27T21:25:02.803904+00:00", "meta": {"OBJECT_NAME": "FENGYUN 1C DEB", "OBJECT_ID": "1999-025EGV", "EPOCH": "2025-12-27T03:18:27.324000", "MEAN_MOTION": 14.98285608, "ECCENTRICITY": 0.01871156, "INCLINATION": 98.6217, "RA_OF_ASC_NODE": 144.5229, "ARG_OF_PERICENTER": 250.2705, "MEAN_ANOMALY": 107.8248, "EPHEMERIS_TYPE": 0, "CLASSIFICATION_TYPE": "U", "NORAD_CAT_ID": 37427, "ELEMENT_SET_NO": 999, "REV_AT_EPOCH": 60538, "BSTAR": 0.00068050228, "MEAN_MOTION_DOT": 0.00011581, "MEAN_MOTION_DDOT": 0}, "tle": {"line1": "1 37427U 99025EGV 25361.13781625  .00011581  00000+0  68050-3 0  9995", "line2": "2 37427  98.6217 144.5229 0187115 250.2705 107.8248 14.98285608605382"}}, "geometry": {"type": "Point", "coordinates": [-4.423905854006305, 73.22427970759479]}}, {"type": "Feature", "properties": {"norad_id": 37428, "name": "FENGYUN 1C DEB", "group": "fengyun-1c-debris", "lat": 81.17181787790099, "lon": 162.06764160969902, "alt_km": 734.0546120369954, "timestamp": "2025-12-27T21:25:02.803915+00:00", "meta": {"OBJECT_NAME": "FENGYUN 1C DEB", "OBJECT_ID": "1999-025EGW", "EPOCH": "2025-12-14T08:18:44.705664", "MEAN_MOTION": 14.34657068, "ECCENTRICITY": 0.0056813, "INCLINATION": 97.722, "RA_OF_ASC_NODE": 210.8336, "ARG_OF_PERICENTER": 94.0763, "MEAN_ANOMALY": 266.6921, "EPHEMERIS_TYPE": 0, "CLASSIFICATION_TYPE": "U", "NORAD_CAT_ID": 37428, "ELEMENT_SET_NO": 999, "REV_AT_EPOCH": 63459, "BSTAR": 0.0018586443, "MEAN_MOTION_DOT": 5.32e-05, "MEAN_MOTION_DDOT": 0}, "tle": {"line1": "1 37428U 99025EGW 25348.34635076  .00005320  00000+0  18586-2 0  9994", "line2": "2 37428  97.7220 210.8336 0056813  94.0763 266.6921 14.34657068634591"}}, "geometry": {"type": "Point", "coordinates": [162.06764160969902, 81.17181787790099]}}, {"type": "Feature", "properties": {"norad_id": 37430, "name": "FENGYUN 1C DEB", "group": "fengyun-1c-debris", "lat": -35.51777377192574, "lon": -110.24414761895629, "alt_km": 813.6785478145257, "timestamp": "2025-12-27T21:25:02.803925+00:00", "meta": {"OBJECT_NAME": "FENGYUN 1C DEB", "OBJECT_ID": "1999-025EGY", "EPOCH": "2025-12-05T03:58:16.719456", "MEAN_MOTION": 14.28846273, "ECCENTRICITY": 0.001883, "INCLINATION": 98.7668, "RA_OF_ASC_NODE": 53.2332, "ARG_OF_PERICENTER": 93.5332, "MEAN_ANOMALY": 266.8003, "EPHEMERIS_TYPE": 0, "CLASSIFICATION_TYPE": "U", "NORAD_CAT_ID": 37430, "ELEMENT_SET_NO": 999, "REV_AT_EPOCH": 61593, "BSTAR": 0.0038447795, "MEAN_MOTION_DOT": 9.683e-05, "MEAN_MOTION_DDOT": 0}, "tle": {"line1": "1 37430U 99025EGY 25339.16547129  .00009683  00000+0  38448-2 0  9993", "line2": "2 37430  98.7668  53.2332 0018830  93.5332 266.8003 14.28846273615930"}}, "geometry": {"type": "Point", "coordinates": [-110.24414761895629, -35.51777377192574]}}, {"type": "Feature", "properties": {"norad_id": 37432, "name": "FENGYUN 1C DEB", "group": "fengyun-1c-debris", "lat": 5.5100002637158845, "lon": -164.38250709473002, "alt_km": 663.0848373682356, "timestamp": "2025-12-27T21:25:02.803935+00:00", "meta": {"OBJECT_NAME": "FENGYUN 1C DEB", "OBJECT_ID": "1999-025EHA", "EPOCH": "2025-12-24T18:15:18.734400", "MEAN_MOTION": 14.53531824, "ECCENTRICITY": 0.01819429, "INCLINATION": 98.1835, "RA_OF_ASC_NODE": 11.7612, "ARG_OF_PERICENTER": 250.5867, "MEAN_ANOMALY": 107.5588, "EPHEMERIS_TYPE": 0, "CLASSIFICATION_TYPE": "U", "NORAD_CAT_ID": 37432, "ELEMENT_SET_NO": 999, "REV_AT_EPOCH": 8551, "BSTAR": 0.0007649529, "MEAN_MOTION_DOT": 3.922e-05, "MEAN_MOTION_DDOT": 0}, "tle": {"line1": "1 37432U 99025EHA 25358.76063350  .00003922  00000+0  76495-3 0  9996", "line2": "2 37432  98.1835  11.7612 0181942 250.5867 107.5588 14.53531824 85510"}}, "geometry": {"type": "Point", "coordinates": [-164.38250709473002, 5.5100002637158845]}}, {"type": "Feature", "properties": {"norad_id": 37435, "name": "FENGYUN 1C DEB", "group": "fengyun-1c-debris", "lat": -16.592783902134887, "lon": -144.68340345042037, "alt_km": 841.6971528738086, "timestamp": "2025-12-27T21:25:02.803946+00:00", "meta": {"OBJECT_NAME": "FENGYUN 1C DEB", "OBJECT_ID": "1999-025EHD", "EPOCH": "2025-12-23T20:15:53.797824", "MEAN_MOTION": 14.22411114, "ECCENTRICITY": 0.0039917, "INCLINATION": 98.647, "RA_OF_ASC_NODE": 33.9447, "ARG_OF_PERICENTER": 341.9849, "MEAN_ANOMALY": 17.9912, "EPHEMERIS_TYPE": 0, "CLASSIFICATION_TYPE": "U", "NORAD_CAT_ID": 37435, "ELEMENT_SET_NO": 999, "REV_AT_EPOCH": 89097, "BSTAR": 0.0010416, "MEAN_MOTION_DOT": 2.295e-05, "MEAN_MOTION_DDOT": 0}, "tle": {"line1": "1 37435U 99025EHD 25357.84437266  .00002295  00000+0  10416-2 0  9990", "line2": "2 37435  98.6470  33.9447 0039917 341.9849  17.9912 14.22411114890978"}}, "geometry": {"type": "Point", "coordinates": [-144.68340345042037, -16.592783902134887]}}, {"type": "Feature", "properties": {"norad_id": 37436, "name": "FENGYUN 1C DEB", "group": "fengyun-1c-debris", "lat": 48.591324401902654, "lon": -113.53234514041014, "alt_km": 827.7329115443308, "timestamp": "2025-12-27T21:25:02.803956+00:00", "meta": {"OBJECT_NAME": "FENGYUN 1C DEB", "OBJECT_ID": "1999-025EHE", "EPOCH": "2025-12-27T10:33:30.942144", "MEAN_MOTION": 14.06376677, "ECCENTRICITY": 0.0059865, "INCLINATION": 98.9362, "RA_OF_ASC_NODE": 55.7436, "ARG_OF_PERICENTER": 107.5784, "MEAN_ANOMALY": 253.1936, "EPHEMERIS_TYPE": 0, "CLASSIFICATION_TYPE": "U", "NORAD_CAT_ID": 37436, "ELEMENT_SET_NO": 999, "REV_AT_EPOCH": 64205, "BSTAR": 0.00072722, "MEAN_MOTION_DOT": 1.177e-05, "MEAN_MOTION_DDOT": 0}, "tle": {"line1": "1 37436U 99025EHE 25361.43994146  .00001177  00000+0  72722-3 0  9993", "line2": "2 37436  98.9362  55.7436 0059865 107.5784 253.1936 14.06376677642050"}}, "geometry": {"type": "Point", "coordinates": [-113.53234514041014, 48.591324401902654]}}, {"type": "Feature", "properties": {"norad_id": 37437, "name": "FENGYUN 1C DEB", "group": "fengyun-1c-debris", "lat": 9.690211329348376, "lon": -8.18240935049067, "alt_km": 749.4893630216957, "timestamp": "2025-12-27T21:25:02.803967+00:00", "meta": {"OBJECT_NAME": "FENGYUN 1C DEB", "OBJECT_ID": "1999-025EHF", "EPOCH": "2025-12-25T05:20:59.278848", "MEAN_MOTION": 14.18883236, "ECCENTRICITY": 0.011303, "INCLINATION": 98.5871, "RA_OF_ASC_NODE": 350.71, "ARG_OF_PERICENTER": 12.7824, "MEAN_ANOMALY": 49.0221, "EPHEMERIS_TYPE": 0, "CLASSIFICATION_TYPE": "U", "NORAD_CAT_ID": 37437, "ELEMENT_SET_NO": 999, "REV_AT_EPOCH": 64168, "BSTAR": 0.00055541, "MEAN_MOTION_DOT": 1.19e-05, "MEAN_MOTION_DDOT": 0}, "tle": {"line1": "1 37437U 99025EHF 25359.22290832  .00001190  00000+0  55541-3 0  9994", "line2": "2 37437  98.5871 350.7100 0113030  12.7824  49.0221 14.18883236641689"}}, "geometry": {"type": "Point", "coordinates": [-8.18240935049067, 9.690211329348376]}}, {"type": "Feature", "properties": {"norad_id": 37438, "name": "FENGYUN 1C DEB", "group": "fengyun-1c-debris", "lat": -26.870963235678918, "lon": -143.8893633271394, "alt_km": 827.6124776164688, "timestamp": "2025-12-27T21:25:02.803977+00:00", "meta": {"OBJECT_NAME": "FENGYUN 1C DEB", "OBJECT_ID": "1999-025EHG", "EPOCH": "2025-12-23T21:26:37.785696", "MEAN_MOTION": 14.15544145, "ECCENTRICITY": 0.0029307, "INCLINATION": 98.7393, "RA_OF_ASC_NODE": 36.6612, "ARG_OF_PERICENTER": 189.321, "MEAN_ANOMALY": 170.7423, "EPHEMERIS_TYPE": 0, "CLASSIFICATION_TYPE": "U", "NORAD_CAT_ID": 37438, "ELEMENT_SET_NO": 999, "REV_AT_EPOCH": 60293, "BSTAR": 0.00060028, "MEAN_MOTION_DOT": 1.135e-05, "MEAN_MOTION_DDOT": 0}, "tle": {"line1": "1 37438U 99025EHG 25357.89349289  .00001135  00000+0  60028-3 0  9992", "line2": "2 37438  98.7393  36.6612 0029307 189.3210 170.7423 14.15544145602933"}}, "geometry": {"type": "Point", "coordinates": [-143.8893633271394, -26.870963235678918]}}, {"type": "Feature", "properties": {"norad_id": 37441, "name": "FENGYUN 1C DEB", "group": "fengyun-1c-debris", "lat": 48.99700254297637, "lon": -163.94518415959976, "alt_km": 867.0367848004962, "timestamp": "2025-12-27T21:25:02.803988+00:00", "meta": {"OBJECT_NAME": "FENGYUN 1C DEB", "OBJECT_ID": "1999-025EHK", "EPOCH": "2025-12-20T19:16:48.855936", "MEAN_MOTION": 13.14245477, "ECCENTRICITY": 0.05088557, "INCLINATION": 99.146, "RA_OF_ASC_NODE": 200.5877, "ARG_OF_PERICENTER": 35.6, "MEAN_ANOMALY": 327.7968, "EPHEMERIS_TYPE": 0, "CLASSIFICATION_TYPE": "U", "NORAD_CAT_ID": 37441, "ELEMENT_SET_NO": 999, "REV_AT_EPOCH": 82278, "BSTAR": 0.001561327, "MEAN_MOTION_DOT": 1.077e-05, "MEAN_MOTION_DDOT": 0}, "tle": {"line1": "1 37441U 99025EHK 25354.80334324  .00001077  00000+0  15613-2 0  9992", "line2": "2 37441  99.1460 200.5877 0508855  35.6000 327.7968 13.14245477822781"}}, "geometry": {"type": "Point", "coordinates": [-163.94518415959976, 48.99700254297637]}}, {"type": "Feature", "properties": {"norad_id": 37444, "name": "FENGYUN 1C DEB", "group": "fengyun-1c-debris", "lat": -33.51668268856217, "lon": 89.63537170503345, "alt_km": 576.6812874783673, "timestamp": "2025-12-27T21:25:02.804023+00:00", "meta": {"OBJECT_NAME": "FENGYUN 1C DEB", "OBJECT_ID": "1999-025EHN", "EPOCH": "2025-12-24T12:18:50.565600", "MEAN_MOTION": 14.4810047, "ECCENTRICITY": 0.02443082, "INCLINATION": 99.0816, "RA_OF_ASC_NODE": 79.9217, "ARG_OF_PERICENTER": 313.8235, "MEAN_ANOMALY": 44.2984, "EPHEMERIS_TYPE": 0, "CLASSIFICATION_TYPE": "U", "NORAD_CAT_ID": 37444, "ELEMENT_SET_NO": 999, "REV_AT_EPOCH": 65321, "BSTAR": 0.00064075579, "MEAN_MOTION_DOT": 3.413e-05, "MEAN_MOTION_DDOT": 0}, "tle": {"line1": "1 37444U 99025EHN 25358.51308525  .00003413  00000+0  64076-3 0  9995", "line2": "2 37444  99.0816  79.9217 0244308 313.8235  44.2984 14.48100470653215"}}, "geometry": {"type": "Point", "coordinates": [89.63537170503345, -33.51668268856217]}}]}